OBJECT_NAME,OBJECT_ID,EPOCH,MEAN_MOTION,ECCENTRICITY,INCLINATION,RA_OF_ASC_NODE,ARG_OF_PERICENTER,MEAN_ANOMALY,EPHEMERIS_TYPE,CLASSIFICATION_TYPE,NORAD_CAT_ID,ELEMENT_SET_NO,REV_AT_EPOCH,BSTAR,MEAN_MOTION_DOT,MEAN_MOTION_DDOT
NOAA 18,2005-018A,2026-07-13T07:24:19.475136,14.13733878,.00153232,98.8109,273.6062,78.2029,282.0861,0,U,28654,999,9000,.29209789E-4,.12E-6,0
SJ-7,2005-024A,2026-07-12T16:04:31.012032,15.21912831,.00137904,97.7279,224.4633,306.3506,53.6456,0,U,28737,999,15190,.19316821E-3,.4334E-4,0
CUBESAT XI-V,2005-043F,2026-07-12T21:09:56.819232,14.72699028,.00151848,98.3010,350.0479,122.0632,238.2052,0,U,28895,999,10553,.12439542E-3,.741E-5,0
CLOUDSAT,2006-016A,2026-07-13T06:26:09.495744,14.86443140,.00040663,98.3916,233.0033,239.8414,120.2398,0,U,29107,999,7838,.63747531E-4,.502E-5,0
CALIPSO,2006-016B,2026-07-13T05:48:23.329152,14.69397973,.00013309,98.4471,210.7940,111.9200,248.2146,0,U,29108,999,7688,.95397249E-4,.512E-5,0
HINODE (SOLAR-B),2006-041A,2026-07-13T00:10:11.163360,14.68656738,.00168691,98.0549,209.7790,201.5609,158.4888,0,U,29479,999,5866,.66878788E-4,.341E-5,0
METOP-A,2006-044A,2026-07-13T06:52:04.656000,14.76045267,.01732763,98.3349,301.8094,346.5811,37.7866,0,U,29499,999,2930,.68496058E-4,.533E-5,0
SHIJIAN-6 02B (SJ-6 02B),2006-046B,2026-07-13T08:06:53.580960,15.01435596,.00136054,97.7154,223.2350,342.7508,17.3252,0,U,29506,999,7466,.46953716E-4,.546E-5,0
DMSP 5D-3 F17 (USA 191),2006-050A,2026-07-13T06:17:27.911040,14.14996126,.00098242,98.7386,200.2993,348.5675,11.5274,0,U,29522,999,1611,.13900106E-4,-.16E-6,0
LAPAN-TUBSAT,2007-001A,2026-07-13T05:55:06.845664,14.85976842,.00136217,98.1350,194.0593,99.2179,261.0577,0,U,29709,999,5502,.40523862E-4,.297E-5,0
HAIYANG-1B,2007-010A,2026-07-12T22:41:14.406432,14.31032985,.00145827,98.3513,174.7935,122.0038,238.2565,0,U,31113,999,432,.28228245E-4,.33E-6,0
BEIDOU-2 M1,2007-011A,2026-07-09T08:51:25.193376,1.77349334,.00019615,50.9251,218.5407,328.5430,31.5155,0,U,31115,999,7654,0,.79E-6,0
CAPE-1,2007-012P,2026-07-12T22:05:41.264736,14.64950148,.00832025,98.4478,169.1072,351.9093,8.0762,0,U,31130,999,2212,.14995181E-3,.788E-5,0
CBERS 2B,2007-042A,2026-07-12T20:31:56.714592,14.41488282,.00296877,98.3931,138.0588,257.1958,163.7050,0,U,32062,999,98838,.40812059E-4,.9E-6,0
COSMO-SKYMED 2,2007-059A,2026-07-13T06:54:09.847872,14.82149633,.00014268,97.8892,17.5078,93.8494,266.2883,0,U,32376,999,587,.3196418E-4,.202E-5,0
CARTOSAT-2A,2008-021A,2026-07-13T11:52:33.390624,14.79276207,.0012632,97.7628,242.3038,32.5024,327.6963,0,U,32783,999,98269,.10129E-3,.704E-5,0
CUTE-1.7+APD II (CO-65),2008-021C,2026-07-13T11:56:43.230048,15.09690795,.0007182,97.8288,176.4700,306.3996,53.6570,0,U,32785,999,98916,.19913E-3,.3142E-4,0
SEEDS II (CO-66),2008-021J,2026-07-13T12:03:43.890048,15.33629018,.0002886,97.7522,193.6748,159.9785,200.1570,0,U,32791,999,99132,.32808E-3,.10586E-3,0
YUBILEINY (RS30),2008-025A,2026-07-13T11:53:11.349600,12.43180767,.0018582,82.5053,339.0738,252.9517,106.9527,0,U,32953,999,82296,.12591E-3,.27E-6,0
FENGYUN 3A,2008-026A,2026-07-13T09:47:41.815104,14.19576282,.0009708,98.6887,134.7515,56.5643,303.6460,0,U,32958,999,93912,.2534E-4,.1E-6,0
HUANJING 1A (HJ-1A),2008-041A,2026-07-13T12:43:06.733056,14.84049137,.0020483,97.6690,179.3519,54.7069,305.6057,0,U,33320,999,96231,.15887E-3,.1277E-4,0
HUANJING 1B (HJ-1B),2008-041B,2026-07-13T12:15:59.848704,14.83362265,.0037906,97.6526,182.4253,96.4807,264.0726,0,U,33321,999,96231,.54426E-4,.4E-5,0
SHIJIAN-6 03A (SJ-6 03A),2008-053A,2026-07-13T11:51:35.785152,15.17413086,.000952,97.8404,228.7318,283.1149,76.9020,0,U,33408,999,96695,.27826E-3,.5497E-4,0
SHIJIAN-6 03B (SJ-6 03B),2008-053B,2026-07-13T12:09:19.880640,15.04379959,.0017876,97.8578,214.8344,317.3003,42.6832,0,U,33409,999,96670,.58902E-4,.759E-5,0
CHUANGXIN 1-02 (CX-1-02),2008-056B,2026-07-13T11:07:22.270080,14.30159718,.0015451,98.6132,220.4671,65.1567,295.1220,0,U,33434,999,92237,.17823E-3,.418E-5,0
STARS (KUKAI),2009-002G,2026-07-13T10:35:15.484416,14.95919981,.0009849,98.1554,142.8258,84.0152,276.2190,0,U,33498,999,94240,.1471E-3,.1584E-4,0
KKS-1 (KISEKI),2009-002H,2026-07-13T12:00:32.984064,14.83186776,.0007285,98.1176,117.3595,194.7767,165.3234,0,U,33499,999,94009,.87832E-4,.661E-5,0
NOAA 19,2009-005A,2026-07-13T10:53:13.276896,14.13478005,.0012986,98.9511,265.3461,319.4051,40.6152,0,U,33591,999,89819,.2206E-4,-.4E-7,0
UK-DMC 2,2009-041C,2026-07-13T12:40:02.782272,14.76091789,.000153,97.8860,328.8551,100.8470,259.2912,0,U,35683,999,91045,.34955E-4,.192E-5,0
METEOR-M 1,2009-049A,2026-07-13T10:33:49.330656,14.23162314,.000142,98.7402,156.7270,205.8102,154.3006,0,U,35865,999,87298,.25843E-4,.14E-6,0
OCEANSAT-2,2009-051A,2026-07-13T12:09:15.137280,13.99656213,.0017234,98.2319,178.7302,158.3586,201.8313,0,U,35931,999,88301,-.58533E-4,-.123E-5,0
SWISSCUBE,2009-051B,2026-07-13T07:17:18.426336,14.62528711,.0007766,98.4011,102.6448,124.1169,236.0769,0,U,35932,999,89297,.1073E-3,.495E-5,0
BEESAT-1,2009-051C,2026-07-12T17:03:25.723296,14.61759519,.00059845,98.3939,101.6234,136.3628,223.8047,0,U,35933,999,89291,.88659106E-4,.393E-5,0
ITUPSAT1,2009-051E,2026-07-11T23:17:18.975264,14.60475983,.0007861,98.4023,100.0372,152.4089,207.7529,0,U,35935,999,89235,.90105677E-4,.388E-5,0
DMSP 5D-3 F18 (USA 210),2009-057A,2026-07-13T05:38:37.476672,14.14910835,.00111096,98.9055,174.9498,170.9536,189.1839,0,U,35951,999,86327,.10623379E-3,.161E-5,0
PROBA-2,2009-059B,2026-07-13T12:18:14.134176,14.54873268,.0012896,98.2458,17.5015,194.0219,166.0622,0,U,36037,999,88535,.29776E-4,.83E-6,0
YAOGAN-7,2009-069A,2026-07-13T03:40:04.838592,14.78034391,.00236247,98.0036,79.8556,318.2451,41.6956,0,U,36110,999,89346,.39107253E-4,.23E-5,0
XIWANG-1 (HOPE-1),2009-072B,2026-07-13T11:07:33.075264,13.16440195,.0007488,100.4028,147.8772,168.5233,191.6052,0,U,36122,999,79646,.51224E-3,.151E-5,0
RADUGA-1M 2,2010-002A,2026-07-13T07:27:38.647008,0.98968724,.00048885,3.6866,78.5345,260.9530,249.6053,0,U,36358,999,5028,0,-.135E-5,0
COSMOS 2463,2010-017A,2026-07-13T13:03:32.887296,13.71667131,.003735,82.9583,230.3405,58.3625,105.8077,0,U,36519,999,81154,.35022E-4,.47E-6,0
CARTOSAT-2B,2010-035A,2026-07-13T07:48:25.591680,14.78616766,.00125922,97.9947,244.7057,104.6565,255.6043,0,U,36795,999,86371,.6578205E-4,.43E-5,0
AISSAT 1,2010-035C,2026-07-13T03:17:51.557856,14.97467067,.00080214,98.0894,94.2939,342.3228,17.7712,0,U,36797,999,86810,.15626336E-3,.1757E-4,0
TISAT 1,2010-035E,2026-07-13T07:19:27.025824,15.32685043,.0004352,98.0709,143.1928,123.3845,236.7812,0,U,36799,999,87170,.39020732E-3,.12237E-3,0
YAOGAN-10,2010-038A,2026-07-13T07:10:16.402080,14.85424319,.00015934,97.8973,217.4946,83.2376,45.3307,0,U,36834,999,86108,.10237837E-3,.828E-5,0
SHIJIAN-6 04B (SJ-6 04B),2010-051B,2026-07-13T07:36:51.407424,14.99383410,.00074788,97.8740,200.0067,218.0237,142.0458,0,U,37180,999,85959,.12893695E-4,.96E-6,0
FENGYUN 3B,2010-059A,2026-07-13T07:53:13.071264,14.14847912,.00231221,98.9614,240.4521,111.6824,311.6572,0,U,37214,999,81112,.15120549E-3,.248E-5,0
COSMO-SKYMED 4,2010-060A,2026-07-13T07:12:23.822208,14.82146979,.00015236,97.8891,17.5225,83.7705,276.3682,0,U,37216,999,84843,-.13429498E-4,-.159E-5,0
O/OREOS (USA 219),2010-062C,2026-07-12T23:29:05.665920,14.93846697,.00138578,71.9695,21.9108,9.4460,350.6968,0,U,37224,999,12049,.11532673E-3,.1163E-4,0
ELEKTRO-L 1 (GOMS 2),2011-001A,2026-07-13T06:33:53.734176,1.00159828,.00039761,9.7429,54.2355,36.5046,176.6864,0,U,37344,999,5674,0,.15E-6,0
RESOURCESAT-2,2011-015A,2026-07-13T06:30:50.889312,14.21605607,.00114858,98.7633,261.5315,176.4965,183.6294,0,U,37387,999,78988,.34493365E-4,.31E-6,0
YOUTHSAT,2011-015B,2026-07-12T21:54:23.423040,14.25640079,.00131784,98.3701,166.8093,266.5578,148.2726,0,U,37388,999,79130,.50909148E-4,.79E-6,0
APRIZESAT 6,2011-044F,2026-07-12T18:08:34.543104,14.76954510,.00432586,98.2341,104.7757,6.0555,56.2773,0,U,37793,999,80092,.60008307E-4,.372E-5,0
JUGNU,2011-058B,2026-07-13T01:27:49.154112,14.13783158,.0018498,19.9592,151.2304,2.9049,74.5783,0,U,37839,999,76269,.42398519E-4,.348E-5,0
SRMSAT,2011-058D,2026-07-13T05:29:33.764928,14.11580868,.00118326,19.9713,261.8486,129.6886,263.2365,0,U,37841,999,76150,.45215897E-4,.348E-5,0
SUOMI NPP,2011-061A,2026-07-13T06:42:17.550720,14.19522367,.00006655,98.7956,134.9780,225.8097,134.3024,0,U,37849,999,76214,.22926373E-4,.4E-7,0
YAOGAN-12,2011-066B,2026-07-13T06:51:12.173184,15.26879798,.00109193,97.1134,231.6285,128.2944,231.9279,0,U,37875,999,81602,.99532727E-4,.2563E-4,0
BEIDOU-2 M4,2012-018B,2026-07-10T05:02:43.446048,1.86229687,.0012086,55.6367,303.3120,272.7348,87.1429,0,U,38251,999,9637,0,-.69E-6,0
ARIRANG-3 (KOMPSAT-3),2012-025B,2026-07-13T07:26:10.616640,14.62228107,.00063266,98.1184,151.3214,43.8555,316.3148,0,U,38338,999,75516,.47525751E-4,.193E-5,0
HORYU-2,2012-025D,2026-07-12T19:20:10.786560,14.91220233,.00093341,98.2203,327.7961,98.8750,261.3524,0,U,38340,999,75254,.1753543E-3,.1683E-4,0
CSSWE,2012-048D,2026-07-12T20:35:19.256928,15.45835634,.0041936,64.6628,6.4473,166.2323,193.9970,0,U,38761,999,12036,.5050556E-3,.25308E-3,0
CP5,2012-048F,2026-07-13T01:13:02.251200,15.28261645,.00743528,64.6450,67.0812,167.7462,192.5499,0,U,38763,999,12071,.28316257E-3,.8276E-4,0
METOP-B,2012-049A,2026-07-13T07:18:40.332672,14.21446031,.00010653,98.6491,245.2810,267.1149,92.9906,0,U,38771,999,71697,.4158675E-4,.48E-6,0
SJ-9A,2012-056A,2026-07-13T05:34:35.027040,14.85526370,.00258009,97.6727,165.2451,168.1679,192.0149,0,U,38860,999,70345,.69677762E-4,.553E-5,0
COSMOS 2484 (RODNIK-S 6),2013-001C,2026-07-13T05:25:22.831680,12.42940386,.00257553,82.4997,205.7034,340.0431,19.9639,0,U,39059,999,61179,.42914979E-3,.69E-6,0
SARAL,2013-009A,2026-07-13T07:07:36.007392,14.32895484,.00015828,98.5554,20.5340,171.4909,188.6303,0,U,39086,999,69934,.30859189E-4,.41E-6,0
AAUSAT 3,2013-009B,2026-07-12T23:02:50.797824,14.39970126,.00123798,98.3707,17.1685,130.6435,229.5832,0,U,39087,999,70088,.12063907E-3,.337E-5,0
